STARLINK-35254          
1 65674U 25211Y   25281.33335648  .00075986  00000+0  13891-2 0  9990
2 65674  97.6031 322.9311 0001339  93.3656 322.7339 15.49110388  4020
STARLINK-34749          
1 65675U 25211Z   25281.33335648 -.00025991  00000+0 -47750-3 0  9996
2 65675  97.6082 322.9281 0001252  88.1832 324.0297 15.49195174  4074
STARLINK-35189          
1 65676U 25212A   25280.52969961  .00341072  00000+0  25389-2 0  9991
2 65676  53.1573 339.2617 0002042 196.1470 163.9483 15.71241029  3710
STARLINK-35222          
1 65677U 25212B   25280.52937060  .00376690  00000+0  27659-2 0  9993
2 65677  53.1571 339.2623 0000769  63.9222 296.1876 15.71459489  3778
STARLINK-35233          
1 65678U 25212C   25280.46543346  .00358629  00000+0  26092-2 0  9999
2 65678  53.1572 339.5718 0001594 113.5571 246.5615 15.71733441  3766
STARLINK-35205          
1 65679U 25212D   25280.52835258  .00414821  00000+0  30790-2 0  9990
2 65679  53.1591 339.2528 0001656  81.9367 278.1839 15.71088867  3713
STARLINK-35070          
1 65680U 25212E   25280.59128534  .00413514  00000+0  30295-2 0  9999
2 65680  53.1589 338.9340 0002422 330.9194  29.1689 15.71404693  3779
STARLINK-35230          
1 65681U 25212F   25280.52733751  .00366987  00000+0  27162-2 0  9996
2 65681  53.1590 339.2455 0000755  70.6153 289.4947 15.71298393  3779
STARLINK-35235          
1 65682U 25212G   25280.59026886 -.00828415  00000+0 -69845-2 0  9993
2 65682  53.1589 338.9269 0001509  62.9432 297.1741 15.71537318  3725
STARLINK-34886          
1 65683U 25212H   25280.59229508  .00395778  00000+0  29113-2 0  9993
2 65683  53.1586 338.9416 0000611  49.6932 310.4140 15.71358852  3723
STARLINK-34795          
1 65684U 25212J   25280.52801381  .00394959  00000+0  29281-2 0  9998
2 65684  53.1590 339.2499 0001160  82.5897 277.5253 15.71175719  3716
STARLINK-35145          
1 65685U 25212K   25280.58959659  .00404865  00000+0  30008-2 0  9994
2 65685  53.1589 338.9222 0002170  52.3642 307.7573 15.71153064  3721
STARLINK-35137          
1 65686U 25212L   25280.51823867  .00469947  00000+0  26286-2 0  9994
2 65686  53.1527 338.4359 0003932  14.9086 345.2051 15.77497868  3720
STARLINK-34856          
1 65687U 25212M   25280.52631708 -.00865990  00000+0 -72401-2 0  9997
2 65687  53.1575 339.2406 0001176  53.4067 306.7060 15.71846267  3717
STARLINK-34930          
1 65688U 25212N   25280.58790045  .00362707  00000+0  26916-2 0  9990
2 65688  53.1589 338.9099 0002450  72.1157 288.0128 15.71250208  3778
STARLINK-34875          
1 65689U 25212P   25280.52564344  .00238287  00000+0  17899-2 0  9991
2 65689  53.1593 339.2348 0000681 108.1556 251.9537 15.71340715  3767
STARLINK-34790          
1 65690U 25212Q   25280.52497135  .00363453  00000+0  26769-2 0  9996
2 65690  53.1594 339.2296 0001643  45.7713 314.3440 15.71427047  3718
STARLINK-34691          
1 65691U 25212R   25280.64444905  .00444482  00000+0  25808-2 0  9992
2 65691  53.1536 337.8002 0000479 168.0449 192.0584 15.76722011  3797
STARLINK-34825          
1 65692U 25212S   25280.52463679  .00394427  00000+0  28956-2 0  9999
2 65692  53.1585 339.2271 0002612  53.5633 306.5626 15.71412431  3752
STARLINK-35060          
1 65693U 25212T   25280.51716221  .00422129  00000+0  24625-2 0  9993
2 65693  53.1532 338.4284 0001768 107.5901 252.5313 15.76680325  3778
STARLINK-35204          
1 65694U 25212U   25280.58720865  .00360912  00000+0  26880-2 0  9996
2 65694  53.1582 338.9049 0002679  41.1162 319.0058 15.71168642  3786
STARLINK-35221          
1 65695U 25212V   25280.52328302  .00359453  00000+0  26488-2 0  9993
2 65695  53.1583 339.2171 0002709  58.5976 301.5307 15.71427252  3774
STARLINK-34734          
1 65696U 25212W   25280.58654451  .00423515  00000+0  31210-2 0  9997
2 65696  53.1591 338.9003 0001014  21.7555 338.3506 15.71233454  3775
STARLINK-35113          
1 65697U 25212X   25280.58620389  .00396293  00000+0  29058-2 0  9990
2 65697  53.1591 338.8993 0002345 325.4003  34.6863 15.71435500  3771
STARLINK-35090          
1 65698U 25212Y   25280.52225632  .00527191  00000+0  38122-2 0  9992
2 65698  53.1593 339.2102 0000611 114.0755 246.0327 15.71375130  3766
STARLINK-35086          
1 65699U 25212Z   25280.58519257  .00534197  00000+0  38746-2 0  9994
2 65699  53.1573 338.8913 0001681  42.1829 317.9318 15.71284646  3726
STARLINK-35101          
1 65700U 25212AA  25280.45830648  .00500744  00000+0  35524-2 0  9995
2 65700  53.1577 339.5214 0001479 173.5201 186.5837 15.71910547  3703
STARLINK-35046          
1 65701U 25212AB  25280.58484794  .00504419  00000+0  36773-2 0  9997
2 65701  53.1586 338.8885 0000538 332.4154  27.6836 15.71248375  3772
STARLINK-35075          
1 65702U 25212AC  25280.58451003  .00507811  00000+0  37003-2 0  9991
2 65702  53.1579 338.8862 0000322 342.7477  17.3531 15.71248511  3773
STARLINK-34839          
1 65703U 25212AD  25280.58417293  .00334103  00000+0  24881-2 0  9997
2 65703  53.1578 338.8837 0000548  30.2190 329.8860 15.71251013  3773
SHIKONGXING 01          
1 65712U 25214A   25281.25001566  .00004391  00000+0  46129-3 0  9999
2 65712  49.9868  37.4170 0013529 347.2846  12.7752 14.91124294  2084
GEESAT-6 01             
1 65713U 25214B   25280.58318427  .00003679  00000+0  41873-3 0  9991
2 65713  49.9861  40.5653 0014816 345.7227  14.3293 14.88242118  1983
GEESAT-6 02             
1 65714U 25214C   25279.91092957  .00005001  00000+0  52961-3 0  9995
2 65714  49.9841  43.7094 0011486 346.1240  13.9384 14.90545027  1889
GEESAT-6 03             
1 65715U 25214D   25281.24632542  .00005289  00000+0  54459-3 0  9997
2 65715  49.9827  37.3901 0013647 349.1962  10.8684 14.91565474  2086
GEESAT-6 04             
1 65716U 25214E   25281.24524743  .00005406  00000+0  55404-3 0  9993
2 65716  49.9874  37.3881 0012800 350.5808   9.4892 14.91717883  2089
GEESAT-6 05             
1 65717U 25214F   25281.25075563  .00004654  00000+0  49077-3 0  9999
2 65717  49.9830  37.4177 0012439 344.9186  15.1383 14.90849612  2089
GEESAT-6 06             
1 65718U 25214G   25281.24634060  .00004667  00000+0  48307-3 0  9991
2 65718  49.9899  37.3967 0013056 348.6227  11.4417 14.91594117  2089
GEESAT-6 07             
1 65719U 25214H   25281.24500465  .00005330  00000+0  54653-3 0  9992
2 65719  49.9820  37.3811 0014645 349.0395  11.0225 14.91707554  2093
GEESAT-6 08             
1 65720U 25214J   25281.31600914  .00004717  00000+0  49374-3 0  9994
2 65720  49.9910  37.1010 0013790 338.5224  21.5137 14.91113367  2099
GEESAT-6 09             
1 65721U 25214K   25281.31690152  .00004760  00000+0  49994-3 0  9994
2 65721  49.9847  37.0997 0013175 345.5694  14.4870 14.90963037  2099
GEESAT-6 10             
1 65722U 25214L   25281.26084624  .00003896  00000+0  46118-3 0  9994
2 65722  49.9892  37.4860 0010771 341.4430  18.6115 14.86495811  2087
GEESAT-6 11             
1 65723U 25214M   25281.24397366  .00005346  00000+0  54655-3 0  9990
2 65723  49.9863  37.3787 0015204 349.3661  10.6957 14.91818310  2087
1998-067XH              
1 65729U 98067XH  25281.23492769  .00089799  00000+0  13193-2 0  9999
2 65729  51.6314 106.3707 0002162 112.7273 247.3947 15.54726026  2926
1998-067XJ              
1 65730U 98067XJ  25280.90004278  .00190066  00000+0  25064-2 0  9998
2 65730  51.6300 107.8833 0003543 281.3215  78.7379 15.57229300  2877
1998-067XK              
1 65731U 98067XK  25280.98150854  .00074555  00000+0  11292-2 0  9991
2 65731  51.6312 107.6777 0001154 281.4095  78.6766 15.53976405  2880
RSP-03                  
1 65732U 98067XL  25281.23687444  .00078481  00000+0  11710-2 0  9998
2 65732  51.6306 106.3830 0001338 283.6763  76.4079 15.54364567  2930
1998-067XM              
1 65733U 98067XM  25281.23357918  .00096658  00000+0  14071-2 0  9998
2 65733  51.6313 106.3614 0001971 115.1796 244.9400 15.54944018  2932
STARLINK-34086          
1 65734U 25216A   25280.58940084  .00477851  00000+0  24071-2 0  9993
2 65734  53.1533 328.9993 0001366  93.0500 267.0679 15.79809535  3050
STARLINK-35099          
1 65735U 25216B   25280.58904238  .00503551  00000+0  25276-2 0  9990
2 65735  53.1529 328.9961 0001291  67.7548 292.3612 15.79818918  3006
STARLINK-35167          
1 65736U 25216C   25280.52535656  .00657161  00000+0  32073-2 0  9999
2 65736  53.1537 329.3098 0001494  30.1067 330.0041 15.80030146  3026
STARLINK-35121          
1 65737U 25216D   25280.58821352  .00402102  00000+0  20496-2 0  9996
2 65737  53.1529 328.9908 0001714  58.6945 301.4245 15.79752564  3030
STARLINK-35108          
1 65738U 25216E   25280.58778257  .00539394  00000+0  27081-2 0  9993
2 65738  53.1528 328.9874 0001692  46.3776 313.7386 15.79718982  3086
STARLINK-35106          
1 65739U 25216F   25280.58734597  .00530675  00000+0  26714-2 0  9998
2 65739  53.1529 328.9845 0001314 104.2943 255.8225 15.79683294  3004
STARLINK-35130          
1 65740U 25216G   25280.52366344  .00591359  00000+0  29391-2 0  9995
2 65740  53.1528 329.2982 0001189  38.8187 321.2921 15.79803379  3079
STARLINK-35284          
1 65741U 25216H   25280.58656854  .00617463  00000+0  30961-2 0  9990
2 65741  53.1530 328.9795 0001415  57.3107 302.8052 15.79539239  3038
STARLINK-35316          
1 65742U 25216J   25280.58617102  .00435374  00000+0  22321-2 0  9994
2 65742  53.1526 328.9761 0001251  60.9993 299.1154 15.79534901  1959
STARLINK-35319          
1 65743U 25216K   25280.58574465  .00426978  00000+0  21866-2 0  9992
2 65743  53.1532 328.9740 0000549 131.5567 228.5502 15.79580723  3087
STARLINK-35173          
1 65744U 25216L   25280.52207920  .00618002  00000+0  30615-2 0  9999
2 65744  53.1529 329.2870 0000677  45.5133 314.5944 15.79802653  3071
STARLINK-34808          
1 65745U 25216M   25280.52166443  .00466471  00000+0  23570-2 0  9997
2 65745  53.1529 329.2850 0001296  37.0033 323.1078 15.79772378  2997
